#dP2024 12 27  0  0  0.00000000      96 __u+U IGS20 EXT  IAC
## 2346 432000.00000000   900.00000000 60671 0.0000000000000
+   52   G02G03G04G05G06G07G08G09G10G11G12G13G14G15G16G17G18
+        G19G20G21G22G23G24G25G26G27G28G29G30G31G32R01R02R03
+        R04R05R07R08R09R11R12R14R15R16R17R18R19R20R21R22R24
+        R26  0  0  0  0  0  0  0  0  0  0  0  0  0  0  0  0
+          0  0  0  0  0  0  0  0  0  0  0  0  0  0  0  0  0
++         6  7  6  8  7  6  7  7  8  6  6  7  6  8  7  8  7
++         6  7  6  7  7  7  6  6  7  6  7  7  7  6  9  9  6
++         7  8  9  9  8  8  8  7  9  9  8  7  9 10  7  8  6
++         9  0  0  0  0  0  0  0  0  0  0  0  0  0  0  0  0
++         0  0  0  0  0  0  0  0  0  0  0  0  0  0  0  0  0
%c M  cc GPS ccc cccc cccc cccc cccc ccccc ccccc ccccc ccccc
%c cc cc ccc ccc cccc cccc cccc cccc ccccc ccccc ccccc ccccc
%f  0.0000000  0.000000000  0.00000000000  0.000000000000000
%f  0.0000000  0.000000000  0.00000000000  0.000000000000000
%i    0    0    0    0      0      0      0      0         0
%i    0    0    0    0      0      0      0      0         0
/* IAC                                ULTRA-RAPID PREDICTION
/* S/V CLOCKS ARE ALIGNED TO GNSS TIME                      
/* G:C1WC2W R:C1PC2P E:C1XC5X C:C2IC6I J:C1CC2S             
/* PCV:IGS20_2317 OL/AL:FES2004  NONE     YN ORB:CoN CLK:CoN
*  2024 12 27  8  0  0.00000000
PG02 -13202.068535  21906.691127  -5898.573011   -282.346500
PG03  -4967.986583  13861.928802 -22264.531523    633.688262
PG04  -1756.676753  24324.470732 -10314.477134    502.461792
PG05  19828.201268  -6859.455034  16151.592646   -197.235949
PG06  17638.230679   1107.442825 -19795.226394    -74.792622
PG07   1181.872198  18450.009072  19444.387916    -14.434915
PG08  -8804.180783  16498.419125  18554.845327    447.878828
PG09   5854.173353  25772.607060  -2335.964134    504.245724
PG10 -23851.675614 -10641.733469   5967.370569   -251.307781
PG11  22064.232869  -9731.257380 -11022.345439   -752.676806
PG12   9380.097425 -12734.021836 -21622.559388   -560.864300
PG13  13579.662846  -7884.707540  21148.638680    691.433958
PG14  21513.122687  13043.395021   8927.397386    568.314748
PG15   6210.868017 -18150.484110  17789.833209    244.475572
PG16 -23549.189033    577.211352  12345.532753    -92.952282
PG17  12801.207530  19135.494105 -12649.651287    501.441149
PG18  -2625.999393 -16721.775455  20440.123594   -659.607422
PG19  15284.943105  10011.988851 -19564.209925    578.856846
PG20  25877.264755  -1698.078422   5483.657161    367.557531
PG21 -16814.907849  19762.898637    412.421547     98.610676
PG22  24333.740003  10144.525500   1540.485759    -88.892284
PG23 -13484.939549 -15157.785303  17307.018227    391.812227
PG24  13509.560982 -22181.134372  -4883.871642   -469.913244
PG25  -5697.446739 -16509.838242 -20438.786476    497.600054
PG26 -26470.214591  -3715.928359   1371.196527    -24.390410
PG27 -14366.038295   4681.318487  21528.412841    -33.781726
PG28 -16778.604738  -2981.460972 -20389.243705   -519.505155
PG29  -3650.898858 -26184.879044  -1767.240240   -552.444195
PG30  12165.582090  10214.480273  21446.862790   -252.457634
PG31 -21497.889258   5772.435463 -15004.112425   -219.165621
PG32 -15300.900128 -15208.235656 -15403.066395   -552.260766
PR01    833.316622  16438.526692 -19487.843720    109.166586
PR02  11945.366895  21809.053728  -5467.663545    -38.881197
PR03  17129.883280  14582.871161  12007.801596    113.957528
PR04  12468.384577     43.732319  22279.139134    270.153501
PR05   1441.857430 -14791.492950  20751.476771    142.828561
PR07 -17117.915933 -14487.486119 -12168.847286     97.723721
PR08 -12438.573320    303.663116 -22213.661720     -6.187030
PR09  -7264.406918 -10186.656781 -22202.255648    228.573854
PR11 -24999.696113   3999.406158   3043.533484      2.963663
PR12 -12598.021097  10620.171084  19494.005580     48.893996
PR14  22039.485305   3692.080723  12322.518596     27.492648
PR15  24607.426541  -4692.313494  -4813.761109     72.787476
PR16  12765.438407 -10494.831276 -19441.506987     31.972558
PR17   9724.747027   4342.778937 -23162.933621    152.123007
PR18  14507.752677 -11979.259388 -17228.649363    178.887389
PR19  13398.190998 -21247.640089  -4423.149265   -303.387206
PR20   2317.779415 -19759.218724  16005.401979   -123.816469
PR21  -9063.531033  -5528.966097  23199.315266   -163.023990
PR22 -15119.201871  12550.267962  16289.688707    -52.958509
PR24   -737.253443  19708.640753 -16162.526843    -85.722847
PR26 -13360.143603  -1373.273653 -21661.275649   -132.387560
*  2024 12 27  8 15  0.00000000
PG02 -13767.856287  22187.770885  -3071.284828   -282.338427
PG03  -7380.668625  13253.744909 -21951.704455    633.695539
PG04  -2299.614327  23095.616796 -12754.710635    502.467220
PG05  21522.250936  -6384.597436  14071.690069   -197.236926
PG06  16054.282773   2823.760752 -20925.386941    -74.817767
PG07   -343.713863  19842.829739  17971.335150    -14.434129
PG08  -9674.195219  14431.307405  19833.688597    447.886482
PG09   5479.351309  25454.906917  -5152.591628    504.259853
PG10 -23039.925971 -10592.111560   8693.613587   -251.322003
PG11  21198.413285  -8606.768038 -13397.882613   -752.676616
PG12  11631.676979 -11974.748678 -20938.356316   -560.866338
PG13  14000.230532  -5420.834650  21659.082424    691.435246
PG14  20334.745100  12996.177006  11403.480697    568.321450
PG15   7335.645551 -16225.456422  19144.289811    244.479643
PG16 -24730.027892    -20.277940   9918.456841    -92.943775
PG17  12895.625191  20522.041350 -10206.318571    501.426223
PG18   -969.966757 -18270.208320  19201.873844   -659.606691
PG19  15583.784336  12108.386375 -18116.138490    578.861050
PG20  26322.299551  -1402.904228   2679.296488    367.557251
PG21 -16973.109799  19412.125136   3323.311608     98.612763
PG22  23961.564288  10312.987259   4386.116083    -88.894347
PG23 -11453.761278 -14834.493820  18955.052487    391.819087
PG24  14007.812138 -22246.805112  -2097.886581   -469.910135
PG25  -3423.854061 -16090.854386 -21254.523350    497.599598
PG26 -26442.596766  -4027.403592  -1399.132389    -24.403530
PG27 -15124.732636   2274.152608  21437.674514    -33.781352
PG28 -15258.946270  -4811.032199 -21216.973499   -519.514434
PG29  -3338.762149 -25883.901964  -4614.683886   -552.441314
PG30  10494.674680  11977.238317  21393.048912   -252.450229
PG31 -20367.529594   4394.659231 -16923.095518   -219.164947
PG32 -15626.934434 -16853.375198 -13263.654749   -552.254979
PR01   -674.826302  14443.836618 -21013.887091    109.167668
PR02  11557.988608  21009.653092  -8545.805629    -38.881070
PR03  18030.533049  15532.092626   9140.537493    113.958009
PR04  14108.002132   2159.740511  21165.608190    270.154594
PR05   2941.561703 -12622.803640  21986.943905    142.829027
PR07 -18039.875964 -15459.752330  -9321.519286     97.724486
PR08 -14101.559862  -1810.278067 -21128.460601     -6.187188
PR09  -4522.951761 -10615.342095 -22729.544392    228.575657
PR11 -25156.138075   4165.108639   -162.098325      2.962016
PR12 -14853.703312  10992.298851  17607.777270     48.894230
PR14  20365.475567   3830.086995  14891.965251     27.492642
PR15  24987.646207  -4869.278587  -1643.367149     72.787112
PR16  15014.232702 -10886.320444 -17528.451360     31.972763
PR17   8610.347520   6968.171888 -22965.542188    152.125969
PR18  13475.705222  -9970.745776 -19223.721914    178.889043
PR19  12887.608493 -20671.063665  -7557.211084   -303.388480
PR20   2960.623131 -21469.645892  13501.364945   -123.816646
PR21  -7936.163049  -8138.125860  22838.876635   -163.026948
PR22 -14123.235137  10659.757411  18398.882935    -52.960127
PR24  -1358.420164  21452.622550 -13722.227039    -85.724308
PR26 -14990.190446  -3396.884095 -20330.950676   -132.387302
EOF
